{
    "links": {
        "self": "http://www.neowsapp.com/rest/v1/neo/3797688?api_key=iIulBulltgU6a56xZRHN4H3l9WmuAYTsLGpBGhQ2"
    },
    "id": "3797688",
    "neo_reference_id": "3797688",
    "name": "(2018 AE12)",
    "designation": "2018 AE12",
    "nasa_jpl_url": "http://ssd.jpl.nasa.gov/sbdb.cgi?sstr=3797688",
    "absolute_magnitude_h": 22.4,
    "estimated_diameter": {
        "kilometers": {
            "estimated_diameter_min": 0.0880146521,
            "estimated_diameter_max": 0.1968067451
        },
        "meters": {
            "estimated_diameter_min": 88.0146520901,
            "estimated_diameter_max": 196.8067450894
        },
        "miles": {
            "estimated_diameter_min": 0.0546897524,
            "estimated_diameter_max": 0.122290004
        },
        "feet": {
            "estimated_diameter_min": 288.7619911632,
            "estimated_diameter_max": 645.6914415591
        }
    },
    "is_potentially_hazardous_asteroid": false,
    "close_approach_data": [
        {
            "close_approach_date": "2017-12-25",
            "close_approach_date_full": "2017-Dec-25 19:41",
            "epoch_date_close_approach": 1514230860000,
            "relative_velocity": {
                "kilometers_per_second": "22.3095039697",
                "kilometers_per_hour": "80314.2142910917",
                "miles_per_hour": "49904.1294299286"
            },
            "miss_distance": {
                "astronomical": "0.1315776917",
                "lunar": "51.1837220713",
                "kilometers": "19683742.417836679",
                "miles": "12230910.3835930102"
            },
            "orbiting_body": "Earth"
        }
    ],
    "orbital_data": {
        "orbit_id": "1",
        "orbit_determination_date": "2018-01-17 15:42:05",
        "first_observation_date": "2018-01-14",
        "last_observation_date": "2018-01-17",
        "data_arc_in_days": 3,
        "observations_used": 40,
        "orbit_uncertainty": "9",
        "minimum_orbit_intersection": ".0688024",
        "jupiter_tisserand_invariant": "3.285",
        "epoch_osculation": "2458133.5",
        "eccentricity": ".7816522398788009",
        "semi_major_axis": "2.077344088559333",
        "inclination": "8.257625903169895",
        "ascending_node_longitude": "128.2628257050559",
        "orbital_period": "1093.606504304271",
        "perihelion_distance": ".4535834287379442",
        "perihelion_argument": "227.5055054822581",
        "aphelion_distance": "3.701104748380723",
        "perihelion_time": "2458067.771704713499",
        "mean_anomaly": "21.63683757366983",
        "mean_motion": ".3291860450565118",
        "equinox": "J2000",
        "orbit_class": {
            "orbit_class_type": "APO",
            "orbit_class_description": "Near-Earth asteroid orbits which cross the Earth’s orbit similar to that of 1862 Apollo",
            "orbit_class_range": "a (semi-major axis) > 1.0 AU; q (perihelion) < 1.017 AU"
        }
    },
    "is_sentry_object": false
}